NORAD_CAT_ID,OBJECT_NAME,OBJECT_TYPE,EPOCH,MEAN_MOTION,ECCENTRICITY,INCLINATION,RA_OF_ASC_NODE,ARG_OF_PERICENTER,MEAN_ANOMALY,BSTAR,MEAN_MOTION_DOT,MEAN_MOTION_DDOT,TLE_LINE0,TLE_LINE1,TLE_LINE2,SEMIMAJOR_AXIS,PERIOD,APOGEE,PERIGEE,DECAYED
50851.0,STARLINK-3314,PAYLOAD,2022-03-06 22:00:00,15.32854858,0.0001896,53.2175,271.6205,39.3253,132.8583,-0.022073,-0.00659984,0.0,0 STARLINK-3314,1 50851U 22001BA  22065.91667824 -.00659984  00000-0 -22073-1 0  9990,2 50851  53.2175 271.6205 0001896  39.3253 132.8583 15.32854858  3660,6845.437,93.942,468.599,466.004,0.0
50851.0,STARLINK-3314,PAYLOAD,2022-03-07 12:00:00,15.3203907,0.0001701,53.2174,268.9055,43.9746,108.132,-0.022704,-0.00661454,0.0,0 STARLINK-3314,1 50851U 22001BA  22066.50001157 -.00661454  00000-0 -22704-1 0  9993,2 50851  53.2174 268.9055 0001701  43.9746 108.1320 15.32039070  3693,6847.866,93.992,470.896,468.567,0.0
50851.0,STARLINK-3314,PAYLOAD,2022-03-07 22:00:00,15.31455238,0.0001806,53.2177,266.9718,40.6993,250.2993,-0.023067,-0.00659937,0.0,0 STARLINK-3314,1 50851U 22001BA  22066.91667824 -.00659937  00000-0 -23067-1 0  9993,2 50851  53.2177 266.9718 0001806  40.6993 250.2993 15.31455238 10706,6849.607,94.028,472.709,470.235,0.0
50851.0,STARLINK-3314,PAYLOAD,2022-03-08 14:00:01,15.30522131,0.0001799,53.2178,263.8765,34.3918,333.0145,-0.023733,-0.0065949,0.0,0 STARLINK-3314,1 50851U 22001BA  22067.58334491 -.00659490  00000-0 -23733-1 0  9992,2 50851  53.2178 263.8765 0001799  34.3918 333.0145 15.30522131  3665,6852.39,94.086,475.48800000000006,473.023,0.0
50851.0,STARLINK-3314,PAYLOAD,2022-03-08 22:00:00,15.30055994,0.0001838,53.2177,262.3331,33.7302,11.0376,-0.024149,-0.0066125,0.0,0 STARLINK-3314,1 50851U 22001BA  22067.91667824 -.00661250  00000-0 -24149-1 0  9997,2 50851  53.2177 262.3331 0001838  33.7302  11.0376 15.30055994  3679,6853.781999999997,94.114,476.907,474.387,0.0
50851.0,STARLINK-3314,PAYLOAD,2022-03-09 06:00:00,15.29588806,0.0001794,53.2175,260.7876,34.3896,47.1811,-0.024451,-0.00659966,0.0,0 STARLINK-3314,1 50851U 22001BA  22068.25001157 -.00659966  00000-0 -24451-1 0  9993,2 50851  53.2175 260.7876 0001794  34.3896  47.1811 15.29588806 10908,6855.178000000001,94.143,478.272,475.81300000000016,0.0
50851.0,STARLINK-3314,PAYLOAD,2022-03-09 14:00:01,15.29121623,0.0001925,53.2177,259.2443,34.0683,83.744,-0.02475,-0.00658564,0.0,0 STARLINK-3314,1 50851U 22001BA  22068.58334491 -.00658564  00000-0 -24750-1 0  9994,2 50851  53.2177 259.2443 0001925  34.0683  83.7440 15.29121623  3658,6856.574000000001,94.172,479.759,477.119,0.0
50851.0,STARLINK-3314,PAYLOAD,2022-03-09 22:00:01,15.28653915,0.0001964,53.2176,257.7042,36.2991,117.2569,-0.025049,-0.00657081,0.0,0 STARLINK-3314,1 50851U 22001BA  22068.91668981 -.00657081  00000-0 -25049-1 0  9990,2 50851  53.2176 257.7042 0001964  36.2991 117.2569 15.28653915  3663,6857.972,94.201,481.184,478.49,0.0
50851.0,STARLINK-3314,PAYLOAD,2022-03-10 14:00:01,15.27649094,0.0001653,53.2165,254.6204,43.4782,179.73,-0.021584,-0.00549597,0.0,0 STARLINK-3314,1 50851U 22001BA  22069.58334491 -.00549597  00000-0 -21584-1 0  9992,2 50851  53.2165 254.6204 0001653  43.4782 179.7300 15.27649094  3635,6860.979,94.262,483.978,481.71,0.0
50851.0,STARLINK-3314,PAYLOAD,2022-03-10 20:00:01,15.27372799,0.0001903,53.2175,253.4697,39.345,119.3772,-0.026183,-0.00660093,0.0,0 STARLINK-3314,1 50851U 22001BA  22069.83334491 -.00660093  00000-0 -26183-1 0  9995,2 50851  53.2175 253.4697 0001903  39.3450 119.3772 15.27372799 11146,6861.807,94.28,484.977,482.366,0.0
50851.0,STARLINK-3314,PAYLOAD,2022-03-10 22:00:01,15.27253674,0.0001826,53.2176,253.0852,42.3245,214.9093,-0.026085,-0.00655562,0.0,0 STARLINK-3314,1 50851U 22001BA  22069.91668981 -.00655562  00000-0 -26085-1 0  9994,2 50851  53.2176 253.0852 0001826  42.3245 214.9093 15.27253674  3662,6862.163000000001,94.287,485.281,482.775,0.0
50851.0,STARLINK-3314,PAYLOAD,2022-03-11 14:00:01,15.263233800000002,0.0001724,53.2178,250.0098,39.4531,284.0323,-0.027031,-0.00659993,0.0,0 STARLINK-3314,1 50851U 22001BA  22070.58334491 -.00659993  00000-0 -27031-1 0  9999,2 50851  53.2178 250.0098 0001724  39.4531 284.0323 15.26323380  3637,6864.951,94.344,488.0,485.633,0.0
50851.0,STARLINK-3314,PAYLOAD,2022-03-11 22:00:00,15.25854778,0.0001613,53.2175,248.4761,42.4723,313.3297,-0.027287,-0.00657043,0.0,0 STARLINK-3314,1 50851U 22001BA  22070.91667824 -.00657043  00000-0 -27287-1 0  9992,2 50851  53.2175 248.4761 0001613  42.4723 313.3297 15.25854778 11315,6866.357,94.373,489.329,487.114,0.0
50851.0,STARLINK-3314,PAYLOAD,2022-03-12 14:00:01,15.24924112,0.000178,53.2177,245.4076,36.0472,22.7063,-0.028259,-0.0066126999999999,0.0,0 STARLINK-3314,1 50851U 22001BA  22071.58334491 -.00661270  00000-0 -28259-1 0  9994,2 50851  53.2177 245.4076 0001780  36.0472  22.7063 15.24924112  3657,6869.15,94.431,492.23800000000006,489.793,0.0
50851.0,STARLINK-3314,PAYLOAD,2022-03-12 22:00:00,15.24453021,0.0001683,53.2174,243.8769,41.4465,47.9427,-0.028321,-0.00653932,0.0,0 STARLINK-3314,1 50851U 22001BA  22071.91667824 -.00653932  00000-0 -28321-1 0  9996,2 50851  53.2174 243.8769 0001683  41.4465  47.9427 15.24453021 11466,6870.565,94.46,493.587,491.274,0.0
50851.0,STARLINK-3314,PAYLOAD,2022-03-13 14:00:01,15.23523114,0.0001991,53.2176,240.8148,35.7786,113.1981,-0.029375,-0.00659255,0.0,0 STARLINK-3314,1 50851U 22001BA  22072.58334491 -.00659255  00000-0 -29375-1 0  9995,2 50851  53.2176 240.8148 0001991  35.7786 113.1981 15.23523114  3675,6873.361,94.518,496.594,493.857,0.0
50851.0,STARLINK-3314,PAYLOAD,2022-03-13 20:00:01,15.23174287,0.000161,53.2175,239.6694,47.8259,32.9168,-0.02977,-0.00661014,0.0,0 STARLINK-3314,1 50851U 22001BA  22072.83334491 -.00661014  00000-0 -29770-1 0  9998,2 50851  53.2175 239.6694 0001610  47.8259  32.9168 15.23174287 11603,6874.41,94.539,497.382,495.168,0.0
50851.0,STARLINK-3314,PAYLOAD,2022-03-13 22:00:01,15.23051852,0.0001669,53.2174,239.2874,49.4817,128.5121,-0.029396,-0.00651088,0.0,0 STARLINK-3314,1 50851U 22001BA  22072.91668981 -.00651088  00000-0 -29396-1 0  9995,2 50851  53.2174 239.2874 0001669  49.4817 128.5121 15.23051852  3659,6874.779,94.547,497.791,495.496,0.0
50851.0,STARLINK-3314,PAYLOAD,2022-03-14 14:00:01,15.22122556,0.0001924,53.2176,236.2322,39.4652,194.7518,-0.030538,-0.00657493,0.0,0 STARLINK-3314,1 50851U 22001BA  22073.58335648 -.00657493  00000-0 -30538-1 0  9996,2 50851  53.2176 236.2322 0001924  39.4652 194.7518 15.22122556  3638,6877.576,94.605,500.765,498.11800000000005,0.0
50851.0,STARLINK-3314,PAYLOAD,2022-03-14 20:00:01,15.21772676,0.0001667,53.2175,235.0891,51.0741,113.5846,-0.030863,-0.006576,0.0,0 STARLINK-3314,1 50851U 22001BA  22073.83334491 -.00657600  00000-0 -30863-1 0  9990,2 50851  53.2175 235.0891 0001667  51.0741 113.5846 15.21772676  3623,6878.630999999999,94.626,501.642,499.349,0.0
50851.0,STARLINK-3314,PAYLOAD,2022-03-14 22:00:00,15.21653629,0.0001591,53.2173,234.7078,52.1247,209.2999,-0.030737,-0.00652958,0.0,0 STARLINK-3314,1 50851U 22001BA  22073.91667824 -.00652958  00000-0 -30737-1 0  9999,2 50851  53.2173 234.7078 0001591  52.1247 209.2999 15.21653629 11776,6878.989000000001,94.634,501.949,499.76,0.0
50851.0,STARLINK-3314,PAYLOAD,2022-03-15 02:00:01,15.21423213,0.0001551999999999,53.2173,233.9446,47.6964,47.1532,-0.031226,-0.00658421,0.0,0 STARLINK-3314,1 50851U 22001BA  22074.08334491 -.00658421  00000-0 -31226-1 0  9994,2 50851  53.2173 233.9446 0001552  47.6964  47.1532 15.21423213  3629,6879.684,94.648,502.617,500.481,0.0
50851.0,STARLINK-3314,PAYLOAD,2022-03-15 22:00:00,15.20255605,0.0001486999999999,53.2173,230.138,48.6758,291.1973,-0.032162,-0.00655469,0.0,0 STARLINK-3314,1 50851U 22001BA  22074.91667824 -.00655469  00000-0 -32162-1 0  9994,2 50851  53.2173 230.1380 0001487  48.6758 291.1973 15.20255605 11923,6883.206,94.721,506.095,504.047,0.0
50851.0,STARLINK-3314,PAYLOAD,2022-03-16 14:00:01,15.19324243,0.0001724,53.2177,227.0962,39.0195,350.3501,-0.033253,-0.00666413,0.0,0 STARLINK-3314,1 50851U 22001BA  22075.58334491 -.00666413  00000-0 -33253-1 0  9992,2 50851  53.2177 227.0962 0001724  39.0195 350.3501 15.19324243  3649,6886.019,94.779,509.071,506.697,0.0
50851.0,STARLINK-3314,PAYLOAD,2022-03-16 20:00:01,15.18972324,0.000151,53.2175,225.9578,53.2587,264.0939,-0.033397,-0.00662697,0.0,0 STARLINK-3314,1 50851U 22001BA  22075.83334491 -.00662697  00000-0 -33397-1 0  9999,2 50851  53.2175 225.9578 0001510  53.2587 264.0939 15.18972324 12063,6887.081999999999,94.801,509.987,507.907,0.0
50851.0,STARLINK-3314,PAYLOAD,2022-03-17 14:00:01,15.17923762,0.0001913,53.2175,222.5429,36.2408,63.1687,-0.034581,-0.00665493,0.0,0 STARLINK-3314,1 50851U 22001BA  22076.58334491 -.00665493  00000-0 -34581-1 0  9995,2 50851  53.2175 222.5429 0001913  36.2408  63.1687 15.17923762  3644,6890.254,94.866,513.437,510.8,0.0
50851.0,STARLINK-3314,PAYLOAD,2022-03-17 22:00:00,15.17455997,0.0001961,53.2172,221.0278,34.6767,86.9579,-0.034882,-0.00662482,0.0,0 STARLINK-3314,1 50851U 22001BA  22076.91667824 -.00662482  00000-0 -34882-1 0  9990,2 50851  53.2172 221.0278 0001961  34.6767  86.9579 15.17455997  3654,6891.669,94.896,514.886,512.183,0.0
50851.0,STARLINK-3314,PAYLOAD,2022-03-18 08:00:01,15.16876274,0.0001761999999999,53.2171,219.1325,42.1427,196.485,-0.035824,-0.00668676,0.0,0 STARLINK-3314,1 50851U 22001BA  22077.33334491 -.00668676  00000-0 -35824-1 0  9996,2 50851  53.2171 219.1325 0001762  42.1427 196.4850 15.16876274 12293,6893.425,94.932,516.505,514.076,0.0
50851.0,STARLINK-3314,PAYLOAD,2022-03-18 14:00:01,15.16522641,0.0001938,53.2175,217.9993,39.406,124.9981,-0.035872,-0.00663187,0.0,0 STARLINK-3314,1 50851U 22001BA  22077.58334491 -.00663187  00000-0 -35872-1 0  9998,2 50851  53.2175 217.9993 0001938  39.4060 124.9981 15.16522641  3658,6894.496999999999,94.954,517.698,515.026,0.0
